{
  "type": "FeatureCollection",
  "features": [
    {
      "type": "Feature",
      "geometry": {
        "type": "Point",
        "coordinates": [
          -76.711371,
          39.249659
        ]
      },
      "properties": {
        "name": "5525 Allegis",
        "roster": false
      }
    },
    {
      "type": "Feature",
      "geometry": {
        "type": "Point",
        "coordinates": [
          -76.712683,
          39.251949
        ]
      },
      "properties": {
        "name": "Administration Drive Garage",
        "roster": false
      }
    },
    {
      "type": "Feature",
      "geometry": {
        "type": "Point",
        "coordinates": [
          -76.71776,
          39.258195
        ]
      },
      "properties": {
        "name": "Alumni House",
        "roster": false
      }
    },
    {
      "type": "Feature",
      "geometry": {
        "type": "Point",
        "coordinates": [
          -76.710132,
          39.257776
        ]
      },
      "properties": {
        "name": "Antietam",
        "roster": true
      }
    },
    {
      "type": "Feature",
      "geometry": {
        "type": "Point",
        "coordinates": [
          -76.711979,
          39.258141
        ]
      },
      "properties": {
        "name": "Apartment Community Center",
        "roster": true
      }
    },
    {
      "type": "Feature",
      "geometry": {
        "type": "Point",
        "coordinates": [
          -76.701128,
          39.252975
        ]
      },
      "properties": {
        "name": "Arbutus United Methodist Church",
        "roster": false
      }
    },
    {
      "type": "Feature",
      "geometry": {
        "type": "Point",
        "coordinates": [
          -76.717099,
          39.258892
        ]
      },
      "properties": {
        "name": "Army ROTC Building",
        "roster": true
      }
    },
    {
      "type": "Feature",
      "geometry": {
        "type": "Point",
        "coordinates": [
          -76.712089,
          39.254942
        ]
      },
      "properties": {
        "name": "Biological Sciences",
        "roster": true
      }
    },
    {
      "type": "Feature",
      "geometry": {
        "type": "Point",
        "coordinates": [
          -76.708696,
          39.258101
        ]
      },
      "properties": {
        "name": "Breton",
        "roster": true
      }
    },
    {
      "type": "Feature",
      "geometry": {
        "type": "Point",
        "coordinates": [
          -76.712422,
          39.249749
        ]
      },
      "properties": {
        "name": "bwtech@UMBC",
        "roster": false
      }
    },
    {
      "type": "Feature",
      "geometry": {
        "type": "Point",
        "coordinates": [
          -76.714114,
          39.257361
        ]
      },
      "properties": {
        "name": "Campus Police",
        "roster": false
      }
    },
    {
      "type": "Feature",
      "geometry": {
        "type": "Point",
        "coordinates": [
          -76.709117,
          39.258062
        ]
      },
      "properties": {
        "name": "Casselman",
        "roster": true
      }
    },
    {
      "type": "Feature",
      "geometry": {
        "type": "Point",
        "coordinates": [
          -76.713876,
          39.257443
        ]
      },
      "properties": {
        "name": "Central Plant",
        "roster": false
      }
    },
    {
      "type": "Feature",
      "geometry": {
        "type": "Point",
        "coordinates": [
          -76.71259,
          39.254868
        ]
      },
      "properties": {
        "name": "Chemistry Lecture Hall",
        "roster": false
      }
    },
    {
      "type": "Feature",
      "geometry": {
        "type": "Point",
        "coordinates": [
          -76.707078,
          39.251934
        ]
      },
      "properties": {
        "name": "Chesapeake Employers Insurance Arena",
        "roster": true
      }
    },
    {
      "type": "Feature",
      "geometry": {
        "type": "Point",
        "coordinates": [
          -76.708394,
          39.256602
        ]
      },
      "properties": {
        "name": "Chesapeake Hall",
        "roster": true
      }
    },
    {
      "type": "Feature",
      "geometry": {
        "type": "Point",
        "coordinates": [
          -76.71178,
          39.258904
        ]
      },
      "properties": {
        "name": "Chester",
        "roster": true
      }
    },
    {
      "type": "Feature",
      "geometry": {
        "type": "Point",
        "coordinates": [
          -76.708132,
          39.258034
        ]
      },
      "properties": {
        "name": "Child Care Center",
        "roster": false
      }
    },
    {
      "type": "Feature",
      "geometry": {
        "type": "Point",
        "coordinates": [
          -76.710428,
          39.257555
        ]
      },
      "properties": {
        "name": "Chincoteague",
        "roster": true
      }
    },
    {
      "type": "Feature",
      "geometry": {
        "type": "Point",
        "coordinates": [
          -76.713095,
          39.258784
        ]
      },
      "properties": {
        "name": "Choptank",
        "roster": true
      }
    },
    {
      "type": "Feature",
      "geometry": {
        "type": "Point",
        "coordinates": [
          -76.716323,
          39.259855
        ]
      },
      "properties": {
        "name": "County Police",
        "roster": false
      }
    },
    {
      "type": "Feature",
      "geometry": {
        "type": "Point",
        "coordinates": [
          -76.708927,
          39.25777
        ]
      },
      "properties": {
        "name": "Deep Creek",
        "roster": true
      }
    },
    {
      "type": "Feature",
      "geometry": {
        "type": "Point",
        "coordinates": [
          -76.709432,
          39.257819
        ]
      },
      "properties": {
        "name": "Elk",
        "roster": true
      }
    },
    {
      "type": "Feature",
      "geometry": {
        "type": "Point",
        "coordinates": [
          -76.713956,
          39.254517
        ]
      },
      "properties": {
        "name": "Engineering",
        "roster": true
      }
    },
    {
      "type": "Feature",
      "geometry": {
        "type": "Point",
        "coordinates": [
          -76.709718,
          39.25703
        ]
      },
      "properties": {
        "name": "Erickson Hall",
        "roster": true
      }
    },
    {
      "type": "Feature",
      "geometry": {
        "type": "Point",
        "coordinates": [
          -76.704519,
          39.252535
        ]
      },
      "properties": {
        "name": "Facilities Management",
        "roster": false
      }
    },
    {
      "type": "Feature",
      "geometry": {
        "type": "Point",
        "coordinates": [
          -76.713642,
          39.255178
        ]
      },
      "properties": {
        "name": "Fine Arts",
        "roster": true
      }
    },
    {
      "type": "Feature",
      "geometry": {
        "type": "Point",
        "coordinates": [
          -76.713572,
          39.258192
        ]
      },
      "properties": {
        "name": "Greenhouse",
        "roster": false
      }
    },
    {
      "type": "Feature",
      "geometry": {
        "type": "Point",
        "coordinates": [
          -76.711172,
          39.257843
        ]
      },
      "properties": {
        "name": "Gunpowder",
        "roster": true
      }
    },
    {
      "type": "Feature",
      "geometry": {
        "type": "Point",
        "coordinates": [
          -76.708068,
          39.257195
        ]
      },
      "properties": {
        "name": "Harbor Hall",
        "roster": true
      }
    },
    {
      "type": "Feature",
      "geometry": {
        "type": "Point",
        "coordinates": [
          -76.710844,
          39.25395
        ]
      },
      "properties": {
        "name": "ILSB",
        "roster": true
      }
    },
    {
      "type": "Feature",
      "geometry": {
        "type": "Point",
        "coordinates": [
          -76.714276,
          39.253837
        ]
      },
      "properties": {
        "name": "ITE",
        "roster": true
      }
    },
    {
      "type": "Feature",
      "geometry": {
        "type": "Point",
        "coordinates": [
          -76.711849,
          39.254806
        ]
      },
      "properties": {
        "name": "Lecture Hall One",
        "roster": true
      }
    },
    {
      "type": "Feature",
      "geometry": {
        "type": "Point",
        "coordinates": [
          -76.712498,
          39.259068
        ]
      },
      "properties": {
        "name": "Magothy",
        "roster": true
      }
    },
    {
      "type": "Feature",
      "geometry": {
        "type": "Point",
        "coordinates": [
          -76.709208,
          39.258647
        ]
      },
      "properties": {
        "name": "Manokin",
        "roster": true
      }
    },
    {
      "type": "Feature",
      "geometry": {
        "type": "Point",
        "coordinates": [
          -76.71247,
          39.254102
        ]
      },
      "properties": {
        "name": "Mathematics & Psychology",
        "roster": false
      }
    },
    {
      "type": "Feature",
      "geometry": {
        "type": "Point",
        "coordinates": [
          -76.712803,
          39.254922
        ]
      },
      "properties": {
        "name": "Meyerhoff Hall",
        "roster": false
      }
    },
    {
      "type": "Feature",
      "geometry": {
        "type": "Point",
        "coordinates": [
          -76.710815,
          39.258009
        ]
      },
      "properties": {
        "name": "Monocacy",
        "roster": true
      }
    },
    {
      "type": "Feature",
      "geometry": {
        "type": "Point",
        "coordinates": [
          -76.711549,
          39.257959
        ]
      },
      "properties": {
        "name": "Nanticoke",
        "roster": true
      }
    },
    {
      "type": "Feature",
      "geometry": {
        "type": "Point",
        "coordinates": [
          -76.717166,
          39.2585
        ]
      },
      "properties": {
        "name": "Naval ROTC Building",
        "roster": true
      }
    },
    {
      "type": "Feature",
      "geometry": {
        "type": "Point",
        "coordinates": [
          -76.706764,
          39.255281
        ]
      },
      "properties": {
        "name": "Patapsco Hall",
        "roster": true
      }
    },
    {
      "type": "Feature",
      "geometry": {
        "type": "Point",
        "coordinates": [
          -76.709577,
          39.258236
        ]
      },
      "properties": {
        "name": "Patuxent",
        "roster": true
      }
    },
    {
      "type": "Feature",
      "geometry": {
        "type": "Point",
        "coordinates": [
          -76.715369,
          39.255312
        ]
      },
      "properties": {
        "name": "Performing Arts & Humanities",
        "roster": false
      }
    },
    {
      "type": "Feature",
      "geometry": {
        "type": "Point",
        "coordinates": [
          -76.709574,
          39.254489
        ]
      },
      "properties": {
        "name": "Physics",
        "roster": true
      }
    },
    {
      "type": "Feature",
      "geometry": {
        "type": "Point",
        "coordinates": [
          -76.709153,
          39.258363
        ]
      },
      "properties": {
        "name": "Pocomoke",
        "roster": true
      }
    },
    {
      "type": "Feature",
      "geometry": {
        "type": "Point",
        "coordinates": [
          -76.706725,
          39.25599
        ]
      },
      "properties": {
        "name": "Potomac Hall",
        "roster": true
      }
    },
    {
      "type": "Feature",
      "geometry": {
        "type": "Point",
        "coordinates": [
          -76.709128,
          39.255199
        ]
      },
      "properties": {
        "name": "Public Policy",
        "roster": true
      }
    },
    {
      "type": "Feature",
      "geometry": {
        "type": "Point",
        "coordinates": [
          -76.712553,
          39.252858
        ]
      },
      "properties": {
        "name": "Retriever Activities Center",
        "roster": false
      }
    },
    {
      "type": "Feature",
      "geometry": {
        "type": "Point",
        "coordinates": [
          -76.714861,
          39.249501
        ]
      },
      "properties": {
        "name": "RWD Applied Technology Lab",
        "roster": false
      }
    },
    {
      "type": "Feature",
      "geometry": {
        "type": "Point",
        "coordinates": [
          -76.71018,
          39.258094
        ]
      },
      "properties": {
        "name": "Sassafras",
        "roster": true
      }
    },
    {
      "type": "Feature",
      "geometry": {
        "type": "Point",
        "coordinates": [
          -76.706936,
          39.256985
        ]
      },
      "properties": {
        "name": "Satellite Utility Plant",
        "roster": false
      }
    },
    {
      "type": "Feature",
      "geometry": {
        "type": "Point",
        "coordinates": [
          -76.713422,
          39.253641
        ]
      },
      "properties": {
        "name": "Sherman Hall",
        "roster": true
      }
    },
    {
      "type": "Feature",
      "geometry": {
        "type": "Point",
        "coordinates": [
          -76.708778,
          39.258422
        ]
      },
      "properties": {
        "name": "Sideling",
        "roster": true
      }
    },
    {
      "type": "Feature",
      "geometry": {
        "type": "Point",
        "coordinates": [
          -76.71279,
          39.253472
        ]
      },
      "properties": {
        "name": "Sondheim Hall",
        "roster": true
      }
    },
    {
      "type": "Feature",
      "geometry": {
        "type": "Point",
        "coordinates": [
          -76.700795,
          39.25276
        ]
      },
      "properties": {
        "name": "Southwest Emergency Services (SWES)",
        "roster": false
      }
    },
    {
      "type": "Feature",
      "geometry": {
        "type": "Point",
        "coordinates": [
          -76.708746,
          39.255816
        ]
      },
      "properties": {
        "name": "Susquehanna Hall",
        "roster": true
      }
    },
    {
      "type": "Feature",
      "geometry": {
        "type": "Point",
        "coordinates": [
          -76.712798,
          39.258926
        ]
      },
      "properties": {
        "name": "Tangier",
        "roster": true
      }
    },
    {
      "type": "Feature",
      "geometry": {
        "type": "Point",
        "coordinates": [
          -76.702998,
          39.255701
        ]
      },
      "properties": {
        "name": "Tech 2 Building",
        "roster": false
      }
    },
    {
      "type": "Feature",
      "geometry": {
        "type": "Point",
        "coordinates": [
          -76.702316,
          39.255082
        ]
      },
      "properties": {
        "name": "Technology Research Center",
        "roster": false
      }
    },
    {
      "type": "Feature",
      "geometry": {
        "type": "Point",
        "coordinates": [
          -76.708915,
          39.256061
        ]
      },
      "properties": {
        "name": "The Center For Well-Being",
        "roster": true
      }
    },
    {
      "type": "Feature",
      "geometry": {
        "type": "Point",
        "coordinates": [
          -76.710928,
          39.257608
        ]
      },
      "properties": {
        "name": "Tuckahoe",
        "roster": true
      }
    },
    {
      "type": "Feature",
      "geometry": {
        "type": "Point",
        "coordinates": [
          -76.713925,
          39.259174
        ]
      },
      "properties": {
        "name": "Walker Avenue Apartments Clubhouse",
        "roster": true
      }
    },
    {
      "type": "Feature",
      "geometry": {
        "type": "Point",
        "coordinates": [
          -76.71384,
          39.259545
        ]
      },
      "properties": {
        "name": "Walker Avenue Apartments I",
        "roster": true
      }
    },
    {
      "type": "Feature",
      "geometry": {
        "type": "Point",
        "coordinates": [
          -76.714739,
          39.258837
        ]
      },
      "properties": {
        "name": "Walker Avenue Apartments II",
        "roster": true
      }
    },
    {
      "type": "Feature",
      "geometry": {
        "type": "Point",
        "coordinates": [
          -76.715163,
          39.258556
        ]
      },
      "properties": {
        "name": "Walker Avenue Apartments III",
        "roster": true
      }
    },
    {
      "type": "Feature",
      "geometry": {
        "type": "Point",
        "coordinates": [
          -76.714252,
          39.258856
        ]
      },
      "properties": {
        "name": "Walker Avenue Apartments Management Office",
        "roster": false
      }
    },
    {
      "type": "Feature",
      "geometry": {
        "type": "Point",
        "coordinates": [
          -76.712399,
          39.257311
        ]
      },
      "properties": {
        "name": "Walker Avenue Garage",
        "roster": false
      }
    },
    {
      "type": "Feature",
      "geometry": {
        "type": "Point",
        "coordinates": [
          -76.705323,
          39.253274
        ]
      },
      "properties": {
        "name": "Warehouse Central Receiving",
        "roster": false
      }
    },
    {
      "type": "Feature",
      "geometry": {
        "type": "Point",
        "coordinates": [
          -76.713299,
          39.247898
        ]
      },
      "properties": {
        "name": "Water Science Center",
        "roster": false
      }
    },
    {
      "type": "Feature",
      "geometry": {
        "type": "Point",
        "coordinates": [
          -76.709829,
          39.25799
        ]
      },
      "properties": {
        "name": "Wicomico",
        "roster": true
      }
    },
    {
      "type": "Feature",
      "geometry": {
        "type": "Point",
        "coordinates": [
          -76.712494,
          39.258648
        ]
      },
      "properties": {
        "name": "Wye",
        "roster": true
      }
    }
  ]
}
