{"type":"FeatureCollection","features":[{"type":"Feature","geometry":{"type":"Polygon","coordinates":[[[-76.714515,39.2542],[-76.714519,39.254179],[-76.714516,39.254158],[-76.714506,39.254137],[-76.714493,39.254121],[-76.714663,39.253763],[-76.714693,39.2537],[-76.714721,39.253642],[-76.714509,39.253582],[-76.714523,39.253553],[-76.714455,39.253535],[-76.714437,39.253572],[-76.714415,39.253566],[-76.714401,39.253562],[-76.714407,39.253548],[-76.714386,39.253541],[-76.714246,39.253502],[-76.714235,39.25351],[-76.714111,39.253473],[-76.714044,39.253618],[-76.71403,39.253616],[-76.713987,39.25367],[-76.713951,39.253736],[-76.713842,39.25397],[-76.713831,39.253994],[-76.713871,39.254005],[-76.713867,39.254015],[-76.714141,39.254092],[-76.714146,39.254078],[-76.714172,39.254085],[-76.714188,39.25409],[-76.714168,39.254129],[-76.71424,39.254151],[-76.714237,39.254157],[-76.714231,39.254171],[-76.714271,39.254179],[-76.71431,39.25418],[-76.714355,39.254175],[-76.714389,39.254163],[-76.714466,39.254186],[-76.714515,39.2542]]]},"properties":{"key":"ITE","height":13.2}},{"type":"Feature","geometry":{"type":"Polygon","coordinates":[[[-76.714369,39.254436],[-76.714313,39.254551],[-76.714319,39.254552],[-76.714286,39.254621],[-76.714254,39.254686],[-76.714249,39.254685],[-76.714192,39.254801],[-76.714159,39.254792],[-76.714122,39.25487],[-76.713908,39.254809],[-76.713923,39.254778],[-76.713895,39.25477],[-76.713868,39.254762],[-76.713853,39.254793],[-76.713534,39.254702],[-76.713663,39.254435],[-76.713787,39.254171],[-76.713918,39.254206],[-76.713924,39.254191],[-76.713934,39.254169],[-76.713937,39.254164],[-76.714088,39.254206],[-76.714069,39.254246],[-76.714111,39.254257],[-76.7141,39.254281],[-76.714131,39.25429],[-76.714164,39.254299],[-76.714174,39.254276],[-76.714187,39.25428],[-76.714208,39.254287],[-76.714378,39.254337],[-76.714335,39.254427],[-76.714369,39.254436]]]},"properties":{"key":"Engineering","height":10}},{"type":"Feature","geometry":{"type":"Polygon","coordinates":[[[-76.714095,39.254985],[-76.713769,39.254887],[-76.713726,39.254875],[-76.713709,39.254911],[-76.71368,39.254903],[-76.713675,39.254912],[-76.71367,39.254911],[-76.713663,39.254909],[-76.713685,39.254863],[-76.713457,39.254797],[-76.713393,39.254933],[-76.71326,39.255219],[-76.71319,39.255368],[-76.713415,39.255432],[-76.71344,39.255381],[-76.713457,39.255386],[-76.713451,39.255398],[-76.713462,39.255401],[-76.713478,39.255406],[-76.713459,39.255445],[-76.713861,39.255559],[-76.713907,39.25546],[-76.713954,39.255359],[-76.713789,39.25531],[-76.713622,39.255262],[-76.713549,39.25524],[-76.713635,39.255057],[-76.713702,39.255075],[-76.713778,39.255097],[-76.713876,39.255125],[-76.714012,39.255166],[-76.714054,39.255076],[-76.714095,39.254985]]]},"properties":{"key":"Fine Arts","height":10}},{"type":"Feature","geometry":{"type":"Polygon","coordinates":[[[-76.71305,39.255251],[-76.713256,39.254813],[-76.713188,39.254794],[-76.713194,39.254783],[-76.713198,39.254773],[-76.713231,39.254782],[-76.713254,39.254733],[-76.713132,39.254698],[-76.713117,39.254731],[-76.713095,39.254725],[-76.713115,39.254683],[-76.712998,39.25465],[-76.712712,39.254569],[-76.712695,39.254605],[-76.712667,39.254597],[-76.71269,39.254548],[-76.712642,39.254534],[-76.712604,39.254614],[-76.712634,39.254623],[-76.712619,39.254654],[-76.712612,39.254652],[-76.712605,39.254668],[-76.7126,39.254679],[-76.712611,39.254682],[-76.712672,39.254699],[-76.712674,39.254695],[-76.712695,39.254701],[-76.712672,39.25475],[-76.712749,39.254772],[-76.712996,39.254842],[-76.713021,39.254791],[-76.713033,39.254794],[-76.713044,39.254797],[-76.713011,39.254867],[-76.713045,39.254877],[-76.713037,39.254894],[-76.712972,39.254876],[-76.712942,39.25494],[-76.712872,39.255088],[-76.712836,39.255078],[-76.712755,39.255055],[-76.712634,39.255021],[-76.712529,39.254991],[-76.712507,39.255037],[-76.712458,39.255023],[-76.71244,39.255018],[-76.712424,39.255052],[-76.71243,39.255054],[-76.712424,39.255065],[-76.712419,39.255077],[-76.71239,39.255068],[-76.712349,39.255154],[-76.712397,39.255168],[-76.712419,39.255122],[-76.712446,39.25513],[-76.712431,39.255163],[-76.712723,39.255245],[-76.712835,39.255277],[-76.712854,39.255237],[-76.712878,39.255244],[-76.712862,39.255277],[-76.712981,39.25531],[-76.713002,39.255267],[-76.712972,39.255258],[-76.712979,39.255244],[-76.712984,39.255232],[-76.71305,39.255251]]]},"properties":{"key":"Meyerhoff Hall","height":10}},{"type":"Feature","geometry":{"type":"Polygon","coordinates":[[[-76.713886,39.253473],[-76.713805,39.253449],[-76.7138,39.253459],[-76.713784,39.253455],[-76.713794,39.253433],[-76.713754,39.253422],[-76.713743,39.253443],[-76.713716,39.253436],[-76.713724,39.253418],[-76.713663,39.2534],[-76.713644,39.253441],[-76.713684,39.253452],[-76.713678,39.253465],[-76.713668,39.253486],[-76.713645,39.253479],[-76.713448,39.253891],[-76.713416,39.253882],[-76.713229,39.253828],[-76.713191,39.253817],[-76.713393,39.253397],[-76.71337,39.253391],[-76.713376,39.253378],[-76.713381,39.253366],[-76.713421,39.253378],[-76.713437,39.253344],[-76.713359,39.253322],[-76.713354,39.253332],[-76.713332,39.253325],[-76.713342,39.253304],[-76.713304,39.253293],[-76.713294,39.253314],[-76.713269,39.253307],[-76.713276,39.253291],[-76.713218,39.253275],[-76.7132,39.253313],[-76.713237,39.253324],[-76.713231,39.253335],[-76.713225,39.253349],[-76.713203,39.253342],[-76.713086,39.253587],[-76.713001,39.253765],[-76.713024,39.253772],[-76.713012,39.253796],[-76.712975,39.253785],[-76.712957,39.253825],[-76.713018,39.253842],[-76.713025,39.253828],[-76.713046,39.253834],[-76.713038,39.253851],[-76.713077,39.253862],[-76.713086,39.253844],[-76.713103,39.253849],[-76.713098,39.253859],[-76.713187,39.253884],[-76.7132,39.253856],[-76.713214,39.25386],[-76.713224,39.253863],[-76.713203,39.253907],[-76.713365,39.253953],[-76.713387,39.253908],[-76.713402,39.253912],[-76.713413,39.253915],[-76.713396,39.253951],[-76.713423,39.253958],[-76.713463,39.25397],[-76.713471,39.253952],[-76.713494,39.253958],[-76.713484,39.253979],[-76.713523,39.25399],[-76.713533,39.25397],[-76.713552,39.253976],[-76.713549,39.253983],[-76.713632,39.254007],[-76.713649,39.253972],[-76.713607,39.25396],[-76.713612,39.25395],[-76.713616,39.25394],[-76.713639,39.253947],[-76.71384,39.253526],[-76.713829,39.253523],[-76.713835,39.25351],[-76.71384,39.253499],[-76.71387,39.253508],[-76.713886,39.253473]]]},"properties":{"key":"Sherman Hall","height":10}},{"type":"Feature","geometry":{"type":"Polygon","coordinates":[[[-76.713035,39.253214],[-76.712936,39.253186],[-76.71293,39.253197],[-76.712923,39.253212],[-76.712901,39.253206],[-76.712783,39.253173],[-76.712545,39.253677],[-76.712668,39.253712],[-76.712687,39.253717],[-76.712681,39.253731],[-76.712674,39.253744],[-76.712706,39.253753],[-76.71277,39.253771],[-76.712789,39.253731],[-76.7128,39.253734],[-76.712811,39.253709],[-76.713013,39.253282],[-76.71298,39.253273],[-76.712986,39.253261],[-76.712992,39.253249],[-76.713015,39.253256],[-76.713035,39.253214]]]},"properties":{"key":"Sondheim Hall","height":16.5}},{"type":"Feature","geometry":{"type":"Polygon","coordinates":[[[-76.712661,39.253878],[-76.712696,39.253888],[-76.71271,39.253858],[-76.712664,39.253844],[-76.712631,39.253835],[-76.712559,39.253815],[-76.712552,39.253831],[-76.712524,39.253824],[-76.71253,39.253812],[-76.712486,39.2538],[-76.712464,39.253845],[-76.712484,39.25385],[-76.71248,39.253858],[-76.712467,39.253855],[-76.712265,39.254283],[-76.712279,39.254287],[-76.712275,39.254296],[-76.712253,39.254289],[-76.712231,39.254337],[-76.712277,39.25435],[-76.712284,39.254336],[-76.712299,39.25434],[-76.712314,39.254344],[-76.712305,39.254362],[-76.712387,39.254385],[-76.712412,39.254393],[-76.712453,39.254404],[-76.712469,39.254371],[-76.712435,39.254361],[-76.712442,39.254345],[-76.712449,39.25433],[-76.712461,39.254334],[-76.712659,39.253915],[-76.712646,39.253911],[-76.712655,39.253891],[-76.712661,39.253878]]]},"properties":{"key":"Mathematics & Psychology","height":16.5}},{"type":"Feature","geometry":{"type":"Polygon","coordinates":[[[-76.711865,39.25488],[-76.711924,39.254834],[-76.711947,39.254799],[-76.711959,39.254802],[-76.711953,39.254816],[-76.711967,39.25482],[-76.711979,39.254823],[-76.712004,39.254773],[-76.711923,39.25475],[-76.711914,39.254768],[-76.711813,39.25474],[-76.71179,39.254702],[-76.711772,39.254706],[-76.711768,39.254696],[-76.711723,39.254712],[-76.711752,39.254763],[-76.711697,39.254874],[-76.711693,39.25489],[-76.711736,39.254898],[-76.711781,39.254898],[-76.711832,39.254891],[-76.711843,39.254916],[-76.711862,39.254908],[-76.71188,39.254901],[-76.711865,39.25488]]]},"properties":{"key":"Lecture Hall One","height":3.3}},{"type":"Feature","geometry":{"type":"Polygon","coordinates":[[[-76.706899,39.255199],[-76.706891,39.255215],[-76.706532,39.255111],[-76.706528,39.255119],[-76.706375,39.255075],[-76.706308,39.255215],[-76.706296,39.255212],[-76.706208,39.255393],[-76.706221,39.255396],[-76.706211,39.255417],[-76.706221,39.25542],[-76.706164,39.255537],[-76.706095,39.255517],[-76.706087,39.255533],[-76.706079,39.255549],[-76.706004,39.255528],[-76.70602,39.255495],[-76.70599,39.255486],[-76.706005,39.255453],[-76.705999,39.255451],[-76.706019,39.255408],[-76.706005,39.255404],[-76.706013,39.255387],[-76.706007,39.255385],[-76.706102,39.255187],[-76.706088,39.255183],[-76.706096,39.255166],[-76.706089,39.255164],[-76.706137,39.255063],[-76.706124,39.255059],[-76.706126,39.255054],[-76.706138,39.255029],[-76.70617,39.255038],[-76.706243,39.254883],[-76.706362,39.254917],[-76.706423,39.254933],[-76.706438,39.254901],[-76.706487,39.254915],[-76.706483,39.254923],[-76.706495,39.254926],[-76.706576,39.25495],[-76.706573,39.254956],[-76.706788,39.255018],[-76.706931,39.255059],[-76.706934,39.255052],[-76.70707,39.255091],[-76.707084,39.25506],[-76.707174,39.255086],[-76.70717,39.255095],[-76.707195,39.255102],[-76.707216,39.255058],[-76.707248,39.255067],[-76.70728,39.255076],[-76.707271,39.255096],[-76.707539,39.255172],[-76.707526,39.2552],[-76.707512,39.255229],[-76.707433,39.255208],[-76.707399,39.255279],[-76.707376,39.255273],[-76.707279,39.25548],[-76.70729,39.255483],[-76.707265,39.255534],[-76.707253,39.255531],[-76.707186,39.255675],[-76.707123,39.255657],[-76.707112,39.25568],[-76.707027,39.255656],[-76.706998,39.255648],[-76.707161,39.255305],[-76.707125,39.255295],[-76.707105,39.255289],[-76.707121,39.255257],[-76.70709,39.255248],[-76.707086,39.255255],[-76.70701,39.255233],[-76.707014,39.255224],[-76.706982,39.255215],[-76.706978,39.255222],[-76.706899,39.255199]]]},"properties":{"key":"Patapsco Hall","height":13.2}},{"type":"Feature","geometry":{"type":"Polygon","coordinates":[[[-76.709726,39.254659],[-76.709918,39.254254],[-76.709885,39.254243],[-76.709851,39.254232],[-76.709834,39.254262],[-76.709815,39.254257],[-76.709821,39.254245],[-76.709692,39.254208],[-76.709678,39.254236],[-76.709662,39.254231],[-76.709537,39.254498],[-76.709481,39.254482],[-76.70946,39.254526],[-76.709354,39.254496],[-76.709334,39.254538],[-76.709302,39.25453],[-76.709264,39.254613],[-76.709256,39.254611],[-76.709247,39.254608],[-76.70923,39.254647],[-76.709246,39.254652],[-76.709674,39.25477],[-76.709686,39.254745],[-76.709692,39.254731],[-76.709623,39.254713],[-76.709629,39.254699],[-76.709644,39.2547],[-76.70966,39.2547],[-76.709674,39.254697],[-76.709687,39.254689],[-76.709696,39.254678],[-76.709707,39.254654],[-76.709726,39.254659]]]},"properties":{"key":"Physics","height":13.2}},{"type":"Feature","geometry":{"type":"Polygon","coordinates":[[[-76.706986,39.256439],[-76.707108,39.256189],[-76.707004,39.256158],[-76.707026,39.256114],[-76.706739,39.256032],[-76.706762,39.255985],[-76.706748,39.25596],[-76.706735,39.255937],[-76.706692,39.255924],[-76.706788,39.255726],[-76.70673,39.25571],[-76.706767,39.255637],[-76.706424,39.255542],[-76.706397,39.255595],[-76.706384,39.255592],[-76.70637,39.255587],[-76.706341,39.255643],[-76.706373,39.255655],[-76.706363,39.255675],[-76.706578,39.255737],[-76.706503,39.255896],[-76.706514,39.255899],[-76.706497,39.255932],[-76.706544,39.255945],[-76.706504,39.256034],[-76.706503,39.256043],[-76.706507,39.256052],[-76.706513,39.256059],[-76.706523,39.256063],[-76.706519,39.256073],[-76.706629,39.256107],[-76.706616,39.256134],[-76.706664,39.256148],[-76.70666,39.256156],[-76.70688,39.256219],[-76.706802,39.256385],[-76.70683,39.256393],[-76.706823,39.256407],[-76.70691,39.256433],[-76.706917,39.256418],[-76.706986,39.256439]]]},"properties":{"key":"Potomac Hall","height":10}},{"type":"Feature","geometry":{"type":"Polygon","coordinates":[[[-76.709108,39.255335],[-76.70939,39.255416],[-76.70949,39.255207],[-76.709509,39.255168],[-76.709296,39.255106],[-76.709238,39.255089],[-76.709226,39.255114],[-76.709169,39.255097],[-76.70915,39.255092],[-76.70917,39.255049],[-76.709132,39.255038],[-76.709121,39.255062],[-76.708839,39.254981],[-76.708747,39.255174],[-76.709132,39.255285],[-76.709118,39.255314],[-76.709108,39.255335]]]},"properties":{"key":"Public Policy","height":13.2}},{"type":"Feature","geometry":{"type":"Polygon","coordinates":[[[-76.713075,39.252837],[-76.713178,39.252616],[-76.713104,39.252595],[-76.713109,39.252584],[-76.713128,39.252589],[-76.713146,39.252551],[-76.712961,39.252499],[-76.712977,39.252465],[-76.712409,39.252306],[-76.712339,39.252456],[-76.712151,39.252404],[-76.712068,39.252581],[-76.712117,39.252595],[-76.712097,39.252639],[-76.712035,39.252771],[-76.711959,39.252932],[-76.711927,39.253001],[-76.712014,39.253025],[-76.712034,39.253056],[-76.711934,39.25327],[-76.711946,39.253274],[-76.712007,39.25329],[-76.712009,39.253284],[-76.712104,39.253312],[-76.712102,39.253317],[-76.712271,39.253365],[-76.712273,39.25336],[-76.712369,39.253387],[-76.712367,39.253392],[-76.712431,39.25341],[-76.712529,39.253201],[-76.71258,39.253185],[-76.712668,39.25321],[-76.712808,39.25291],[-76.712869,39.252929],[-76.712865,39.252936],[-76.712886,39.252933],[-76.712908,39.252926],[-76.712934,39.252912],[-76.712958,39.252893],[-76.712979,39.252866],[-76.712985,39.252852],[-76.713001,39.252817],[-76.713075,39.252837]]]},"properties":{"key":"Retriever Activities Center","height":10}},{"type":"Feature","geometry":{"type":"Polygon","coordinates":[[[-76.709219,39.255869],[-76.709243,39.255816],[-76.709279,39.25574],[-76.709236,39.255728],[-76.709238,39.255724],[-76.709181,39.255707],[-76.709186,39.255698],[-76.709159,39.25569],[-76.709162,39.255684],[-76.708797,39.255579],[-76.708801,39.255571],[-76.708663,39.255531],[-76.70866,39.255538],[-76.70864,39.255532],[-76.708629,39.255556],[-76.708554,39.255535],[-76.70847,39.25551],[-76.708466,39.255509],[-76.708458,39.255525],[-76.708429,39.255517],[-76.70839,39.255598],[-76.708371,39.255593],[-76.708357,39.255621],[-76.708366,39.255624],[-76.708354,39.255649],[-76.708365,39.255652],[-76.708317,39.255749],[-76.708325,39.255751],[-76.708312,39.255776],[-76.708326,39.255781],[-76.708233,39.25597],[-76.708238,39.255972],[-76.708228,39.255992],[-76.708243,39.255997],[-76.708221,39.256041],[-76.708228,39.256043],[-76.708212,39.256074],[-76.708293,39.256098],[-76.708374,39.256122],[-76.708379,39.256111],[-76.708389,39.256114],[-76.708442,39.256006],[-76.708432,39.256003],[-76.708442,39.255984],[-76.70843,39.25598],[-76.708516,39.255806],[-76.708526,39.255809],[-76.708562,39.255737],[-76.708588,39.255745],[-76.708611,39.2557],[-76.708704,39.255727],[-76.708707,39.255721],[-76.708733,39.255728],[-76.708738,39.255719],[-76.708874,39.255758],[-76.708871,39.255765],[-76.70892,39.255779],[-76.708923,39.255772],[-76.709051,39.255809],[-76.709046,39.255818],[-76.709069,39.255825],[-76.709066,39.255831],[-76.709202,39.25587],[-76.709205,39.255865],[-76.709219,39.255869]]]},"properties":{"key":"Susquehanna Hall","height":9.9}},{"type":"Feature","geometry":{"type":"Polygon","coordinates":[[[-76.711037,39.257642],[-76.711059,39.257638],[-76.711031,39.257536],[-76.711006,39.25754],[-76.711,39.257516],[-76.710947,39.257525],[-76.710943,39.257512],[-76.710909,39.257518],[-76.710865,39.257525],[-76.710869,39.257538],[-76.710814,39.257547],[-76.710821,39.257572],[-76.710796,39.257576],[-76.710825,39.257681],[-76.71085,39.257676],[-76.710857,39.2577],[-76.710913,39.257691],[-76.710917,39.257704],[-76.710956,39.257697],[-76.710994,39.257691],[-76.71099,39.257679],[-76.711044,39.25767],[-76.711037,39.257642]]]},"properties":{"key":"Tuckahoe","height":9.9}},{"type":"Feature","geometry":{"type":"Polygon","coordinates":[[[-76.714408,39.259353],[-76.714321,39.259443],[-76.714339,39.259454],[-76.714309,39.259484],[-76.714301,39.25948],[-76.714238,39.259544],[-76.714246,39.259549],[-76.714217,39.259578],[-76.714209,39.259573],[-76.714107,39.259678],[-76.714065,39.259653],[-76.714042,39.259677],[-76.714051,39.259682],[-76.713945,39.259791],[-76.713954,39.259797],[-76.713935,39.259817],[-76.713926,39.259825],[-76.713919,39.259822],[-76.713876,39.259866],[-76.713857,39.259855],[-76.713835,39.259878],[-76.713713,39.259808],[-76.713735,39.259785],[-76.713663,39.259744],[-76.713651,39.259737],[-76.713614,39.259715],[-76.713595,39.259734],[-76.713461,39.259656],[-76.713455,39.259663],[-76.713441,39.259655],[-76.713416,39.25964],[-76.713421,39.259634],[-76.71328,39.259552],[-76.713298,39.259534],[-76.713272,39.259519],[-76.713431,39.259355],[-76.713421,39.25935],[-76.713449,39.259321],[-76.71346,39.259327],[-76.713561,39.259224],[-76.713584,39.259238],[-76.713607,39.259214],[-76.713712,39.259276],[-76.71369,39.259298],[-76.713718,39.259314],[-76.713601,39.259434],[-76.713484,39.259554],[-76.71349,39.259557],[-76.713501,39.259545],[-76.713509,39.259549],[-76.713522,39.259557],[-76.713559,39.25952],[-76.713714,39.259611],[-76.713694,39.259632],[-76.713729,39.259653],[-76.713744,39.259662],[-76.713799,39.259694],[-76.713817,39.259675],[-76.713894,39.259596],[-76.713931,39.259618],[-76.713958,39.259591],[-76.713949,39.259586],[-76.714051,39.259481],[-76.714041,39.259475],[-76.714056,39.259459],[-76.714071,39.259445],[-76.714078,39.259449],[-76.714123,39.259403],[-76.714129,39.259397],[-76.714029,39.259339],[-76.714044,39.259324],[-76.714017,39.259309],[-76.714111,39.259212],[-76.714139,39.259228],[-76.714154,39.259212],[-76.714264,39.259276],[-76.714282,39.259279],[-76.714408,39.259353]]]},"properties":{"key":"Walker Avenue Apartments I","height":16.5}},{"type":"Feature","geometry":{"type":"Polygon","coordinates":[[[-76.714735,39.258461],[-76.714758,39.258438],[-76.71473,39.258422],[-76.714835,39.258315],[-76.714824,39.258309],[-76.714842,39.258291],[-76.714853,39.25828],[-76.714863,39.258286],[-76.714906,39.258242],[-76.714921,39.258251],[-76.714946,39.258225],[-76.71507,39.258298],[-76.715046,39.258323],[-76.715061,39.258333],[-76.71505,39.258344],[-76.7151,39.258373],[-76.715108,39.258365],[-76.715132,39.258379],[-76.715151,39.258359],[-76.715284,39.258437],[-76.715292,39.258429],[-76.715333,39.258453],[-76.715325,39.258462],[-76.71546,39.25854],[-76.71544,39.258561],[-76.715596,39.258652],[-76.715507,39.258743],[-76.715529,39.258756],[-76.715521,39.258764],[-76.715498,39.258787],[-76.715476,39.258774],[-76.715373,39.25888],[-76.715347,39.258864],[-76.715324,39.258887],[-76.715222,39.258828],[-76.715246,39.258804],[-76.715217,39.258787],[-76.715325,39.258676],[-76.715341,39.25866],[-76.715206,39.258582],[-76.715199,39.258589],[-76.715179,39.258577],[-76.71516,39.258566],[-76.715167,39.258559],[-76.715035,39.258482],[-76.715055,39.258462],[-76.715024,39.258443],[-76.715034,39.258433],[-76.715015,39.258423],[-76.714988,39.258407],[-76.714886,39.258512],[-76.714861,39.258497],[-76.714837,39.258521],[-76.714735,39.258461]]]},"properties":{"key":"Walker Avenue Apartments III","height":16.5}},{"type":"Feature","geometry":{"type":"Polygon","coordinates":[[[-76.713306,39.258986],[-76.71297,39.25855],[-76.712956,39.258557],[-76.712945,39.258543],[-76.712907,39.25856],[-76.712918,39.258574],[-76.712885,39.25859],[-76.712962,39.25869],[-76.712952,39.258694],[-76.712963,39.258709],[-76.712976,39.258727],[-76.712986,39.258722],[-76.713124,39.258901],[-76.713117,39.258905],[-76.713128,39.258919],[-76.713143,39.258939],[-76.713151,39.258936],[-76.71322,39.259026],[-76.713306,39.258986]]]},"properties":{"key":"Choptank","height":9.9}},{"type":"Feature","geometry":{"type":"Polygon","coordinates":[[[-76.713006,39.259126],[-76.712924,39.259017],[-76.712761,39.2588],[-76.712676,39.258687],[-76.71259,39.258726],[-76.712676,39.258842],[-76.712838,39.259056],[-76.71292,39.259165],[-76.713006,39.259126]]]},"properties":{"key":"Tangier","height":9.9}},{"type":"Feature","geometry":{"type":"Polygon","coordinates":[[[-76.712702,39.259261],[-76.71262,39.259153],[-76.712459,39.258939],[-76.71238,39.258836],[-76.712294,39.258875],[-76.712616,39.2593],[-76.712702,39.259261]]]},"properties":{"key":"Magothy","height":9.9}},{"type":"Feature","geometry":{"type":"Polygon","coordinates":[[[-76.712799,39.258554],[-76.712739,39.258479],[-76.712605,39.258543],[-76.712334,39.258673],[-76.71219,39.258741],[-76.71225,39.258817],[-76.71239,39.258749],[-76.712664,39.258618],[-76.712799,39.258554]]]},"properties":{"key":"Wye","height":9.9}},{"type":"Feature","geometry":{"type":"Polygon","coordinates":[[[-76.712084,39.25881],[-76.712024,39.258735],[-76.71188,39.258804],[-76.711603,39.258937],[-76.711475,39.258998],[-76.711535,39.259073],[-76.711676,39.259006],[-76.711946,39.258876],[-76.712084,39.25881]]]},"properties":{"key":"Chester","height":9.9}},{"type":"Feature","geometry":{"type":"Polygon","coordinates":[[[-76.708454,39.257536],[-76.708465,39.257539],[-76.708488,39.257495],[-76.708458,39.257486],[-76.708464,39.257475],[-76.708469,39.257465],[-76.708549,39.257489],[-76.708721,39.257126],[-76.708407,39.257034],[-76.708382,39.257089],[-76.708365,39.257084],[-76.708325,39.25717],[-76.708339,39.257174],[-76.708331,39.25719],[-76.70845,39.257226],[-76.708351,39.257432],[-76.708395,39.257446],[-76.708391,39.257455],[-76.708385,39.257468],[-76.708336,39.257453],[-76.708326,39.257474],[-76.708121,39.257415],[-76.708168,39.25732],[-76.70818,39.257324],[-76.708201,39.25728],[-76.708185,39.257276],[-76.708203,39.25724],[-76.708138,39.25722],[-76.708162,39.257175],[-76.708027,39.257134],[-76.708022,39.257144],[-76.707917,39.257111],[-76.707796,39.257073],[-76.707943,39.256782],[-76.707748,39.256724],[-76.707735,39.256721],[-76.70754,39.257121],[-76.707584,39.257135],[-76.707579,39.257144],[-76.707572,39.257159],[-76.707606,39.257171],[-76.7076,39.257185],[-76.707557,39.257172],[-76.707416,39.257535],[-76.707732,39.257626],[-76.707755,39.257572],[-76.707771,39.257575],[-76.707809,39.257494],[-76.707794,39.257489],[-76.707801,39.257472],[-76.707687,39.257437],[-76.707781,39.257236],[-76.707672,39.257205],[-76.707679,39.25719],[-76.707726,39.257202],[-76.707737,39.257179],[-76.707933,39.257236],[-76.707923,39.257259],[-76.707967,39.257272],[-76.707848,39.257514],[-76.70791,39.257532],[-76.708392,39.257669],[-76.708454,39.257536]]]},"properties":{"key":"Harbor Hall","height":16.5}},{"type":"Feature","geometry":{"type":"Polygon","coordinates":[[[-76.708925,39.256346],[-76.708856,39.256326],[-76.70876,39.256299],[-76.708755,39.256309],[-76.708748,39.256308],[-76.708698,39.256414],[-76.708704,39.256416],[-76.708695,39.256436],[-76.708709,39.25644],[-76.708626,39.256616],[-76.708615,39.256613],[-76.708596,39.256653],[-76.708581,39.256685],[-76.708546,39.256675],[-76.708527,39.256716],[-76.708441,39.256692],[-76.708438,39.256698],[-76.708411,39.25669],[-76.708406,39.256699],[-76.708275,39.256662],[-76.708278,39.256654],[-76.708221,39.256637],[-76.708217,39.256645],[-76.70821,39.256643],[-76.708097,39.256611],[-76.708101,39.256602],[-76.708079,39.256596],[-76.708082,39.25659],[-76.707943,39.25655],[-76.70794,39.256556],[-76.707925,39.256552],[-76.707863,39.256681],[-76.707906,39.256693],[-76.707904,39.256698],[-76.707959,39.256714],[-76.707954,39.256723],[-76.707982,39.256731],[-76.707979,39.256737],[-76.708007,39.256745],[-76.70834,39.256842],[-76.708337,39.256848],[-76.708475,39.256888],[-76.708477,39.256882],[-76.708499,39.256888],[-76.708514,39.256856],[-76.708687,39.256906],[-76.708691,39.256897],[-76.708722,39.256905],[-76.70877,39.256806],[-76.708786,39.256772],[-76.708778,39.25677],[-76.708824,39.256675],[-76.708814,39.256672],[-76.708826,39.256646],[-76.708815,39.256643],[-76.708907,39.256451],[-76.708899,39.256448],[-76.708909,39.256427],[-76.708898,39.256424],[-76.708919,39.25638],[-76.70891,39.256377],[-76.708925,39.256346]]]},"properties":{"key":"Chesapeake Hall","height":10}},{"type":"Feature","geometry":{"type":"Polygon","coordinates":[[[-76.710434,39.256843],[-76.710421,39.256869],[-76.710429,39.256871],[-76.710419,39.256892],[-76.710428,39.256895],[-76.710298,39.257173],[-76.710235,39.257141],[-76.710205,39.257201],[-76.709951,39.257134],[-76.70977,39.257497],[-76.709521,39.257437],[-76.709001,39.25729],[-76.709186,39.256907],[-76.709212,39.25691],[-76.709219,39.256898],[-76.709268,39.256912],[-76.709294,39.256872],[-76.70932,39.256834],[-76.709363,39.256753],[-76.709417,39.25665],[-76.709401,39.256647],[-76.709381,39.25664],[-76.709415,39.256563],[-76.709591,39.256598],[-76.709981,39.256705],[-76.71005,39.25672],[-76.710041,39.256742],[-76.710053,39.256745],[-76.710039,39.256781],[-76.710022,39.256822],[-76.709964,39.256807],[-76.709957,39.256825],[-76.709924,39.256818],[-76.709916,39.256834],[-76.709847,39.256821],[-76.709861,39.256779],[-76.709758,39.256749],[-76.709633,39.256714],[-76.709598,39.256797],[-76.70954,39.256915],[-76.709463,39.256892],[-76.709449,39.256922],[-76.709439,39.256945],[-76.709407,39.256939],[-76.709401,39.256963],[-76.70929,39.257199],[-76.709546,39.257275],[-76.709529,39.25732],[-76.709579,39.257335],[-76.709607,39.25734],[-76.709717,39.25709],[-76.709745,39.25709],[-76.709786,39.257102],[-76.709791,39.25709],[-76.709768,39.25708],[-76.709797,39.257012],[-76.709812,39.256984],[-76.709852,39.256987],[-76.709869,39.256949],[-76.709916,39.256961],[-76.709906,39.256984],[-76.709913,39.256984],[-76.709945,39.256985],[-76.709979,39.256994],[-76.709974,39.257014],[-76.710004,39.25702],[-76.71,39.25703],[-76.710041,39.257045],[-76.710111,39.257065],[-76.710218,39.256845],[-76.710223,39.256833],[-76.710235,39.256825],[-76.710256,39.256829],[-76.710283,39.256836],[-76.710294,39.256811],[-76.710324,39.256819],[-76.710334,39.256794],[-76.710434,39.256843]]]},"properties":{"key":"Erickson Hall","height":10}},{"type":"Feature","geometry":{"type":"Polygon","coordinates":[[[-76.715548,39.254919],[-76.715399,39.254877],[-76.715373,39.254933],[-76.715342,39.254925],[-76.715249,39.254899],[-76.715277,39.25484],[-76.715178,39.254813],[-76.715084,39.254787],[-76.714699,39.254889],[-76.714619,39.254939],[-76.714604,39.254978],[-76.714607,39.255012],[-76.714627,39.25504],[-76.714657,39.255061],[-76.714702,39.255074],[-76.714708,39.255079],[-76.714698,39.255099],[-76.714683,39.25513],[-76.714669,39.255126],[-76.714637,39.255191],[-76.714748,39.255225],[-76.714784,39.255234],[-76.714911,39.255268],[-76.714924,39.255271],[-76.714993,39.255291],[-76.71509,39.255324],[-76.715192,39.25535],[-76.715305,39.255384],[-76.715334,39.255393],[-76.715261,39.255559],[-76.715399,39.2556],[-76.715421,39.255606],[-76.715435,39.255611],[-76.715442,39.255596],[-76.715484,39.255607],[-76.71555,39.255689],[-76.715647,39.25577],[-76.715777,39.255838],[-76.715947,39.255733],[-76.715861,39.255633],[-76.715879,39.255592],[-76.715891,39.255564],[-76.716024,39.255606],[-76.716134,39.255331],[-76.716018,39.255299],[-76.716087,39.255152],[-76.715921,39.255105],[-76.715794,39.255377],[-76.71562,39.255328],[-76.715578,39.255317],[-76.715666,39.255127],[-76.715635,39.255118],[-76.715475,39.255074],[-76.715548,39.254919]]]},"properties":{"key":"Performing Arts & Humanities","height":13.2}},{"type":"Feature","geometry":{"type":"Polygon","coordinates":[[[-76.714441,39.259099],[-76.714449,39.25909],[-76.714337,39.259026],[-76.714351,39.259011],[-76.714324,39.258995],[-76.714415,39.258901],[-76.714443,39.258917],[-76.714456,39.258903],[-76.714624,39.259],[-76.714617,39.259008],[-76.714643,39.259024],[-76.714702,39.258964],[-76.714695,39.25896],[-76.714838,39.258812],[-76.714755,39.258765],[-76.714775,39.258745],[-76.714747,39.258729],[-76.714757,39.258718],[-76.714738,39.258707],[-76.714695,39.258683],[-76.714689,39.258689],[-76.714674,39.25868],[-76.714575,39.258783],[-76.714562,39.258775],[-76.714539,39.258799],[-76.714488,39.258769],[-76.714437,39.25874],[-76.71446,39.258716],[-76.71442,39.258693],[-76.714535,39.258573],[-76.714592,39.258514],[-76.714607,39.258523],[-76.714631,39.258498],[-76.714755,39.25857],[-76.714732,39.258594],[-76.714748,39.258603],[-76.714739,39.258613],[-76.714797,39.258646],[-76.714817,39.258659],[-76.714829,39.258647],[-76.714854,39.258662],[-76.714874,39.258642],[-76.715057,39.258747],[-76.715042,39.258762],[-76.715154,39.258827],[-76.715039,39.258945],[-76.714991,39.258918],[-76.714881,39.259032],[-76.714783,39.259134],[-76.714713,39.259093],[-76.714707,39.259099],[-76.714699,39.259107],[-76.714662,39.259086],[-76.714574,39.259176],[-76.714441,39.259099]]]},"properties":{"key":"Walker Avenue Apartments II","height":16.5}},{"type":"Feature","geometry":{"type":"Polygon","coordinates":[[[-76.717286,39.258514],[-76.717116,39.258414],[-76.717066,39.258464],[-76.717045,39.258485],[-76.717216,39.258586],[-76.717286,39.258514]]]},"properties":{"key":"Naval ROTC Building","height":10}},{"type":"Feature","geometry":{"type":"Polygon","coordinates":[[[-76.717059,39.259001],[-76.717097,39.258962],[-76.717224,39.258833],[-76.71714,39.258783],[-76.716974,39.258951],[-76.717059,39.259001]]]},"properties":{"key":"Army ROTC Building","height":10}},{"type":"Feature","geometry":{"type":"Polygon","coordinates":[[[-76.712212,39.258134],[-76.712118,39.258235],[-76.712108,39.258245],[-76.712063,39.258218],[-76.71198,39.258331],[-76.711891,39.258292],[-76.711874,39.258285],[-76.71186,39.258303],[-76.711746,39.258257],[-76.711852,39.258109],[-76.711887,39.25812],[-76.711894,39.258113],[-76.711901,39.258106],[-76.711832,39.258057],[-76.711927,39.25795],[-76.712037,39.258021],[-76.712028,39.258032],[-76.712212,39.258134]]]},"properties":{"key":"Apartment Community Center","height":10}},{"type":"Feature","geometry":{"type":"Polygon","coordinates":[[[-76.707963,39.252006],[-76.707847,39.252108],[-76.707557,39.252373],[-76.707539,39.252359],[-76.707451,39.252494],[-76.706192,39.251963],[-76.706325,39.251738],[-76.706777,39.251931],[-76.70689,39.251757],[-76.706509,39.251603],[-76.706658,39.251374],[-76.706689,39.251382],[-76.707036,39.251537],[-76.707007,39.251586],[-76.707432,39.251723],[-76.707652,39.251818],[-76.707834,39.251917],[-76.707963,39.252006]]]},"properties":{"key":"Chesapeake Employers Insurance Arena","height":10}},{"type":"Feature","geometry":{"type":"Polygon","coordinates":[[[-76.711159,39.25422],[-76.711217,39.254051],[-76.711185,39.254045],[-76.711314,39.253786],[-76.711246,39.253768],[-76.711228,39.2538],[-76.711118,39.253768],[-76.711082,39.253841],[-76.710567,39.253679],[-76.710511,39.253805],[-76.710533,39.253813],[-76.710493,39.253884],[-76.710437,39.253877],[-76.710374,39.254044],[-76.710531,39.25409],[-76.710804,39.254138],[-76.711059,39.254161],[-76.711048,39.254204],[-76.711159,39.25422]]]},"properties":{"key":"ILSB","height":13.2}},{"type":"Feature","geometry":{"type":"Polygon","coordinates":[[[-76.712666,39.254989],[-76.712683,39.254953],[-76.712703,39.254959],[-76.712752,39.254857],[-76.712731,39.254851],[-76.712749,39.254811],[-76.712733,39.254806],[-76.712574,39.254761],[-76.712526,39.254748],[-76.712517,39.254769],[-76.712492,39.254762],[-76.712475,39.254797],[-76.712444,39.254863],[-76.712429,39.254896],[-76.712455,39.254904],[-76.712445,39.254926],[-76.712497,39.254941],[-76.712651,39.254984],[-76.712666,39.254989]]]},"properties":{"key":"Chemistry Lecture Hall","height":10}},{"type":"Feature","geometry":{"type":"Polygon","coordinates":[[[-76.709536,39.257778],[-76.709547,39.257762],[-76.709428,39.257712],[-76.709416,39.257728],[-76.709389,39.257717],[-76.709384,39.257724],[-76.709363,39.257754],[-76.709341,39.257745],[-76.709322,39.257771],[-76.709303,39.257798],[-76.709324,39.257808],[-76.709301,39.25784],[-76.709297,39.257846],[-76.709326,39.257858],[-76.709314,39.257876],[-76.709435,39.257927],[-76.709447,39.257909],[-76.709474,39.257921],[-76.709502,39.257882],[-76.709522,39.25789],[-76.709541,39.257863],[-76.709559,39.257837],[-76.709541,39.257829],[-76.709568,39.257792],[-76.709536,39.257778]]]},"properties":{"key":"Elk","height":9.9}},{"type":"Feature","geometry":{"type":"Polygon","coordinates":[[[-76.708823,39.258337],[-76.708818,39.25832],[-76.708686,39.258342],[-76.708691,39.258361],[-76.708661,39.258366],[-76.708672,39.258407],[-76.708648,39.258411],[-76.708658,39.258446],[-76.708665,39.258471],[-76.708689,39.258467],[-76.708701,39.25851],[-76.708733,39.258505],[-76.708739,39.258524],[-76.708873,39.258501],[-76.708868,39.258482],[-76.708899,39.258476],[-76.708886,39.258432],[-76.708908,39.258429],[-76.708899,39.258398],[-76.708891,39.25837],[-76.708871,39.258373],[-76.708859,39.258331],[-76.708823,39.258337]]]},"properties":{"key":"Sideling","height":9.9}},{"type":"Feature","geometry":{"type":"Polygon","coordinates":[[[-76.709044,39.257783],[-76.709064,39.257775],[-76.709005,39.257681],[-76.708982,39.257689],[-76.708969,39.257668],[-76.70892,39.257686],[-76.708913,39.257675],[-76.708878,39.257689],[-76.708842,39.257702],[-76.708849,39.257713],[-76.708798,39.257733],[-76.708812,39.257756],[-76.708789,39.257764],[-76.70885,39.25786],[-76.708873,39.257851],[-76.708887,39.257873],[-76.708939,39.257853],[-76.708949,39.257869],[-76.708985,39.257855],[-76.709019,39.257842],[-76.70901,39.257827],[-76.70906,39.257809],[-76.709044,39.257783]]]},"properties":{"key":"Deep Creek","height":9.9}},{"type":"Feature","geometry":{"type":"Polygon","coordinates":[[[-76.708762,39.258026],[-76.708762,39.258008],[-76.708626,39.258008],[-76.708626,39.258027],[-76.708596,39.258027],[-76.708596,39.258069],[-76.708571,39.25807],[-76.708571,39.258106],[-76.708571,39.258131],[-76.708596,39.258131],[-76.708596,39.258175],[-76.708629,39.258175],[-76.708629,39.258194],[-76.708767,39.258194],[-76.708767,39.258174],[-76.708798,39.258174],[-76.708798,39.258129],[-76.70882,39.258129],[-76.70882,39.258098],[-76.70882,39.258068],[-76.708799,39.258068],[-76.708799,39.258025],[-76.708762,39.258026]]]},"properties":{"key":"Breton","height":9.9}},{"type":"Feature","geometry":{"type":"Polygon","coordinates":[[[-76.709147,39.258149],[-76.709165,39.258161],[-76.709253,39.258081],[-76.709235,39.258069],[-76.709255,39.25805],[-76.709214,39.258023],[-76.70923,39.258008],[-76.7092,39.257989],[-76.70917,39.257968],[-76.709153,39.257983],[-76.70911,39.257954],[-76.709089,39.257973],[-76.70907,39.257961],[-76.70898,39.258042],[-76.708999,39.258055],[-76.708979,39.258073],[-76.709023,39.258102],[-76.709009,39.258115],[-76.709039,39.258136],[-76.709068,39.258155],[-76.709081,39.258143],[-76.709124,39.258171],[-76.709147,39.258149]]]},"properties":{"key":"Casselman","height":9.9}},{"type":"Feature","geometry":{"type":"Polygon","coordinates":[[[-76.709252,39.258563],[-76.709247,39.258545],[-76.709115,39.258568],[-76.70912,39.258587],[-76.70909,39.258592],[-76.709102,39.258633],[-76.709078,39.258638],[-76.709086,39.258667],[-76.709095,39.258698],[-76.709119,39.258693],[-76.709132,39.258736],[-76.709164,39.258731],[-76.70917,39.25875],[-76.709304,39.258726],[-76.709298,39.258707],[-76.709329,39.258702],[-76.709316,39.258658],[-76.709338,39.258654],[-76.709329,39.258623],[-76.709321,39.258595],[-76.7093,39.258598],[-76.709288,39.258556],[-76.709252,39.258563]]]},"properties":{"key":"Manokin","height":9.9}},{"type":"Feature","geometry":{"type":"Polygon","coordinates":[[[-76.709211,39.258283],[-76.709208,39.258265],[-76.709073,39.258276],[-76.709076,39.258295],[-76.709045,39.258298],[-76.70905,39.258339],[-76.709026,39.258341],[-76.70903,39.258371],[-76.709034,39.258403],[-76.709058,39.258401],[-76.709064,39.258444],[-76.709097,39.258442],[-76.709099,39.258461],[-76.709237,39.25845],[-76.709234,39.258431],[-76.709265,39.258428],[-76.709259,39.258383],[-76.709281,39.258382],[-76.709277,39.258351],[-76.709273,39.258321],[-76.709253,39.258323],[-76.709247,39.25828],[-76.709211,39.258283]]]},"properties":{"key":"Pocomoke","height":9.9}},{"type":"Feature","geometry":{"type":"Polygon","coordinates":[[[-76.709689,39.258213],[-76.709705,39.2582],[-76.709602,39.258131],[-76.709586,39.258145],[-76.709562,39.25813],[-76.709527,39.258161],[-76.709508,39.258149],[-76.709482,39.258172],[-76.709456,39.258195],[-76.709474,39.258208],[-76.709437,39.258241],[-76.709462,39.258258],[-76.709446,39.258272],[-76.70955,39.258342],[-76.709567,39.258327],[-76.709591,39.258343],[-76.709629,39.258309],[-76.709645,39.25832],[-76.709672,39.258297],[-76.709697,39.258275],[-76.709681,39.258264],[-76.709717,39.258232],[-76.709689,39.258213]]]},"properties":{"key":"Patuxent","height":9.9}},{"type":"Feature","geometry":{"type":"Polygon","coordinates":[[[-76.709943,39.257975],[-76.70996,39.257962],[-76.709865,39.257887],[-76.709847,39.2579],[-76.709826,39.257883],[-76.709787,39.257912],[-76.709769,39.257898],[-76.709738,39.257922],[-76.709712,39.257941],[-76.70973,39.257955],[-76.709689,39.257985],[-76.709712,39.258004],[-76.709694,39.258017],[-76.709789,39.258094],[-76.709808,39.25808],[-76.70983,39.258098],[-76.709872,39.258066],[-76.709887,39.258079],[-76.709916,39.258057],[-76.709943,39.258037],[-76.709929,39.258025],[-76.709969,39.257995],[-76.709943,39.257975]]]},"properties":{"key":"Wicomico","height":9.9}},{"type":"Feature","geometry":{"type":"Polygon","coordinates":[[[-76.710433,39.257645],[-76.710446,39.25766],[-76.710555,39.257597],[-76.710541,39.257582],[-76.710566,39.257568],[-76.710533,39.257534],[-76.710548,39.257525],[-76.710529,39.257505],[-76.710501,39.257476],[-76.710486,39.257484],[-76.710453,39.257449],[-76.710426,39.257464],[-76.710411,39.257448],[-76.7103,39.257512],[-76.710315,39.257528],[-76.71029,39.257542],[-76.710325,39.257578],[-76.71031,39.257587],[-76.710334,39.257613],[-76.710356,39.257636],[-76.71037,39.257628],[-76.710403,39.257662],[-76.710433,39.257645]]]},"properties":{"key":"Chincoteague","height":9.9}},{"type":"Feature","geometry":{"type":"Polygon","coordinates":[[[-76.710035,39.257826],[-76.710026,39.257843],[-76.710151,39.257883],[-76.710161,39.257865],[-76.710189,39.257874],[-76.71021,39.257835],[-76.710233,39.257843],[-76.710249,39.257812],[-76.710263,39.257786],[-76.71024,39.257779],[-76.710262,39.257738],[-76.710232,39.257728],[-76.710241,39.25771],[-76.710114,39.257669],[-76.710104,39.257688],[-76.710075,39.257678],[-76.710053,39.25772],[-76.710032,39.257714],[-76.710017,39.257743],[-76.710003,39.25777],[-76.710022,39.257776],[-76.710001,39.257815],[-76.710035,39.257826]]]},"properties":{"key":"Antietam","height":9.9}},{"type":"Feature","geometry":{"type":"Polygon","coordinates":[[[-76.710293,39.258071],[-76.710308,39.258057],[-76.710205,39.257989],[-76.710189,39.258003],[-76.710165,39.257988],[-76.71013,39.258019],[-76.710111,39.258007],[-76.710086,39.25803],[-76.710059,39.258053],[-76.710078,39.258066],[-76.710041,39.258099],[-76.710066,39.258116],[-76.710049,39.258131],[-76.710153,39.2582],[-76.71017,39.258185],[-76.710194,39.258201],[-76.710232,39.258167],[-76.710249,39.258178],[-76.710275,39.258155],[-76.7103,39.258133],[-76.710284,39.258122],[-76.71032,39.25809],[-76.710293,39.258071]]]},"properties":{"key":"Sassafras","height":9.9}},{"type":"Feature","geometry":{"type":"Polygon","coordinates":[[[-76.710917,39.257965],[-76.710928,39.25795],[-76.710807,39.257902],[-76.710796,39.257919],[-76.710768,39.257908],[-76.710743,39.257945],[-76.710721,39.257936],[-76.710705,39.257961],[-76.710685,39.257991],[-76.710707,39.258],[-76.710681,39.258039],[-76.71071,39.258051],[-76.710699,39.258068],[-76.710821,39.258117],[-76.710833,39.258099],[-76.710861,39.25811],[-76.710888,39.25807],[-76.710907,39.258078],[-76.710926,39.25805],[-76.710943,39.258024],[-76.710925,39.258017],[-76.71095,39.257979],[-76.710917,39.257965]]]},"properties":{"key":"Monocacy","height":9.9}},{"type":"Feature","geometry":{"type":"Polygon","coordinates":[[[-76.711662,39.257988],[-76.711684,39.257983],[-76.711645,39.257882],[-76.711622,39.257888],[-76.711613,39.257865],[-76.711561,39.257877],[-76.711553,39.257858],[-76.711517,39.257867],[-76.711477,39.257876],[-76.711484,39.257894],[-76.71143,39.257907],[-76.711439,39.257931],[-76.711415,39.257937],[-76.711454,39.258039],[-76.711479,39.258033],[-76.711488,39.258057],[-76.711544,39.258044],[-76.71155,39.25806],[-76.711583,39.258053],[-76.711625,39.258043],[-76.711619,39.258028],[-76.711672,39.258015],[-76.711662,39.257988]]]},"properties":{"key":"Nanticoke","height":9.9}},{"type":"Feature","geometry":{"type":"Polygon","coordinates":[[[-76.711275,39.257885],[-76.711298,39.257883],[-76.711284,39.257778],[-76.711259,39.25778],[-76.711256,39.257756],[-76.711203,39.257761],[-76.711202,39.257753],[-76.711158,39.257757],[-76.711121,39.25776],[-76.711122,39.257767],[-76.711067,39.257771],[-76.71107,39.257797],[-76.711045,39.257799],[-76.711059,39.257905],[-76.711085,39.257903],[-76.711088,39.257927],[-76.711146,39.257922],[-76.711147,39.257932],[-76.711187,39.257929],[-76.711225,39.257926],[-76.711224,39.257917],[-76.711279,39.257913],[-76.711275,39.257885]]]},"properties":{"key":"Gunpowder","height":9.9}},{"type":"Feature","geometry":{"type":"Polygon","coordinates":[[[-76.713941,39.259274],[-76.713953,39.259263],[-76.714054,39.25916],[-76.713908,39.259074],[-76.713796,39.259189],[-76.713941,39.259274]]]},"properties":{"key":"Walker Avenue Apartments Clubhouse","height":10}},{"type":"Feature","geometry":{"type":"Polygon","coordinates":[[[-76.709042,39.256241],[-76.708844,39.256186],[-76.708853,39.256171],[-76.708839,39.256167],[-76.708831,39.256182],[-76.708668,39.256137],[-76.708701,39.256068],[-76.708729,39.256076],[-76.708734,39.256067],[-76.708705,39.256058],[-76.708736,39.255995],[-76.708896,39.256043],[-76.708865,39.256105],[-76.708758,39.256075],[-76.708754,39.256084],[-76.708862,39.256117],[-76.708848,39.256147],[-76.708863,39.256152],[-76.708912,39.256048],[-76.708933,39.256007],[-76.70894,39.255992],[-76.708927,39.255987],[-76.70892,39.256003],[-76.708757,39.25595],[-76.708788,39.255881],[-76.708953,39.255936],[-76.708938,39.255965],[-76.70895,39.255969],[-76.708967,39.25594],[-76.709063,39.255968],[-76.709028,39.256042],[-76.709038,39.256044],[-76.709076,39.255972],[-76.709162,39.255997],[-76.709042,39.256241]]]},"properties":{"key":"The Center For Well-Being","height":10}},{"type":"Feature","geometry":{"type":"Polygon","coordinates":[[[-76.712431,39.254601],[-76.712393,39.25459],[-76.712408,39.254558],[-76.712428,39.254564],[-76.71244,39.254539],[-76.712412,39.254531],[-76.712382,39.254522],[-76.712397,39.25449],[-76.71237,39.254482],[-76.712345,39.254475],[-76.712269,39.254453],[-76.712237,39.254521],[-76.712231,39.254534],[-76.712186,39.254629],[-76.712181,39.254628],[-76.712171,39.254649],[-76.712176,39.254651],[-76.71217,39.254665],[-76.712162,39.254663],[-76.712087,39.254821],[-76.712095,39.254823],[-76.712087,39.254841],[-76.712082,39.25485],[-76.712003,39.254828],[-76.711963,39.254913],[-76.712043,39.254936],[-76.712041,39.254941],[-76.712058,39.254946],[-76.71221,39.254989],[-76.712245,39.254999],[-76.712286,39.254912],[-76.712267,39.254906],[-76.712374,39.254678],[-76.712392,39.254683],[-76.712431,39.254601]]]},"properties":{"key":"Biological Sciences","height":16.5}},{"type":"Feature","geometry":{"type":"Polygon","coordinates":[[[-76.71213,39.255064],[-76.712144,39.255035],[-76.712171,39.255043],[-76.712201,39.255051],[-76.712215,39.255022],[-76.712196,39.255017],[-76.71221,39.254989],[-76.712058,39.254946],[-76.712045,39.254975],[-76.712024,39.254969],[-76.711997,39.255026],[-76.71213,39.255064]]]},"properties":{"key":"Biological Sciences","height":16.5}},{"type":"Feature","geometry":{"type":"Polygon","coordinates":[[[-76.71213,39.255064],[-76.711997,39.255026],[-76.711902,39.255],[-76.711875,39.255058],[-76.711828,39.255156],[-76.711793,39.255145],[-76.711769,39.2552],[-76.711803,39.255209],[-76.711737,39.255362],[-76.711747,39.255364],[-76.711953,39.255423],[-76.711978,39.25543],[-76.712005,39.255369],[-76.712037,39.255376],[-76.712062,39.255323],[-76.712032,39.255316],[-76.712013,39.255311],[-76.712102,39.255122],[-76.71213,39.255064]]]},"properties":{"key":"Biological Sciences","height":16.5}}]}