{"type":"FeatureCollection","features":[{"type":"Feature","properties":{"key":"University Center","osm_name":"University Center","height":9.9},"geometry":{"type":"Polygon","coordinates":[[[-76.713076,39.254274],[-76.713055,39.254274],[-76.713037,39.254282],[-76.713026,39.254295],[-76.713023,39.254309],[-76.713028,39.254323],[-76.713039,39.254334],[-76.713073,39.254344],[-76.713047,39.2544],[-76.713012,39.254476],[-76.713037,39.254517],[-76.713047,39.254535],[-76.71308,39.254545],[-76.713058,39.254593],[-76.713211,39.254636],[-76.713272,39.254653],[-76.713325,39.254667],[-76.713463,39.254379],[-76.713509,39.254277],[-76.713499,39.254275],[-76.713425,39.254254],[-76.713456,39.254187],[-76.713411,39.254174],[-76.713467,39.254055],[-76.71347,39.254049],[-76.713335,39.25401],[-76.713326,39.254028],[-76.713285,39.254016],[-76.713267,39.254052],[-76.713235,39.254043],[-76.713088,39.254002],[-76.713033,39.254123],[-76.71299,39.254211],[-76.71312,39.25425],[-76.713103,39.254282],[-76.713076,39.254274]]]}},{"type":"Feature","properties":{"key":"Administration","osm_name":"Administration","height":33.0},"geometry":{"type":"Polygon","coordinates":[[[-76.713718,39.252974],[-76.713666,39.252959],[-76.713586,39.252936],[-76.713481,39.252906],[-76.713391,39.25288],[-76.713369,39.252928],[-76.713416,39.252941],[-76.71339,39.252994],[-76.71337,39.252988],[-76.713342,39.253047],[-76.713363,39.253053],[-76.713337,39.253107],[-76.713296,39.253095],[-76.713272,39.253144],[-76.713596,39.253237],[-76.71362,39.253186],[-76.713573,39.253172],[-76.713651,39.253008],[-76.713696,39.253021],[-76.713718,39.252974]]]}},{"type":"Feature","properties":{"key":"Commons","osm_name":"The Commons","height":13.2},"geometry":{"type":"Polygon","coordinates":[[[-76.711012,39.254921],[-76.711125,39.254676],[-76.711135,39.254678],[-76.711221,39.254481],[-76.711181,39.254469],[-76.711039,39.254427],[-76.710973,39.254407],[-76.710923,39.254511],[-76.710887,39.254502],[-76.710763,39.254618],[-76.710666,39.2546],[-76.710515,39.254928],[-76.710487,39.254989],[-76.710589,39.255017],[-76.71057,39.25506],[-76.710643,39.255081],[-76.710627,39.255117],[-76.710612,39.255149],[-76.710882,39.255226],[-76.710901,39.255187],[-76.710914,39.255159],[-76.711455,39.255312],[-76.71146,39.255303],[-76.711546,39.255327],[-76.711637,39.255131],[-76.711583,39.255115],[-76.711554,39.255106],[-76.711565,39.255083],[-76.71107,39.254937],[-76.711012,39.254921]]]}},{"type":"Feature","properties":{"key":"True Grit's","osm_name":"True Grit's","height":6.6},"geometry":{"type":"Polygon","coordinates":[[[-76.707649,39.256349],[-76.707785,39.256067],[-76.707887,39.256095],[-76.707976,39.25591],[-76.708109,39.255948],[-76.708176,39.255813],[-76.708009,39.255765],[-76.707981,39.255822],[-76.707943,39.255812],[-76.70793,39.255836],[-76.707893,39.255825],[-76.708,39.255598],[-76.707865,39.255558],[-76.707717,39.255519],[-76.707589,39.255784],[-76.707366,39.25572],[-76.707265,39.255935],[-76.707417,39.255978],[-76.707494,39.256],[-76.707364,39.256266],[-76.707649,39.256349]]]}},{"type":"Feature","properties":{"key":"AOK Library","osm_name":"Albin O. Kuhn Library and Gallery","height":23.1},"geometry":{"type":"Polygon","coordinates":[[[-76.712458,39.256609],[-76.712361,39.256518],[-76.712096,39.256271],[-76.711988,39.256171],[-76.711891,39.25608],[-76.711861,39.256098],[-76.711832,39.256071],[-76.711763,39.256116],[-76.711739,39.256132],[-76.711772,39.256161],[-76.711692,39.256334],[-76.711664,39.256327],[-76.711673,39.256307],[-76.711634,39.256298],[-76.711595,39.256296],[-76.711564,39.256297],[-76.711533,39.256301],[-76.711504,39.256308],[-76.711477,39.256318],[-76.711457,39.256327],[-76.711439,39.256339],[-76.711456,39.256355],[-76.711435,39.256368],[-76.711398,39.256333],[-76.711362,39.256355],[-76.711342,39.256335],[-76.710729,39.256737],[-76.710749,39.256755],[-76.710713,39.25678],[-76.71079,39.256852],[-76.710832,39.256826],[-76.711121,39.256911],[-76.711135,39.256903],[-76.711161,39.256926],[-76.711193,39.256955],[-76.711364,39.256844],[-76.711428,39.256905],[-76.711611,39.257077],[-76.711986,39.256833],[-76.711957,39.256805],[-76.711936,39.256786],[-76.711942,39.256782],[-76.711979,39.256784],[-76.711979,39.256759],[-76.711995,39.25675],[-76.711941,39.2567],[-76.711947,39.256684],[-76.711948,39.256666],[-76.711941,39.256647],[-76.71199,39.256615],[-76.712177,39.256788],[-76.712337,39.256686],[-76.712365,39.256713],[-76.712378,39.256704],[-76.712459,39.256653],[-76.712429,39.256627],[-76.712444,39.256617],[-76.712458,39.256609]]]}}]}